[{"OBJECT_NAME":"HULIANWANG DIGUI-96","OBJECT_ID":"2025-258A","EPOCH":"2026-03-09T21:26:49.918848","MEAN_MOTION":13.29331985,"ECCENTRICITY":4.569e-5,"INCLINATION":50.0047,"RA_OF_ASC_NODE":291.7589,"ARG_OF_PERICENTER":113.1835,"MEAN_ANOMALY":246.9086,"EPHEMERIS_TYPE":0,"CLASSIFICATION_TYPE":"U","NORAD_CAT_ID":66412,"ELEMENT_SET_NO":999,"REV_AT_EPOCH":1652,"BSTAR":0.00013631437,"MEAN_MOTION_DOT":-6.1e-7,"MEAN_MOTION_DDOT":0},{"OBJECT_NAME":"DELTA 1 R\/B(1)","OBJECT_ID":"1978-062B","EPOCH":"2026-03-09T22:26:54.482784","MEAN_MOTION":13.54109041,"ECCENTRICITY":0.0685281,"INCLINATION":28.428,"RA_OF_ASC_NODE":167.4417,"ARG_OF_PERICENTER":340.6842,"MEAN_ANOMALY":16.8884,"EPHEMERIS_TYPE":0,"CLASSIFICATION_TYPE":"U","NORAD_CAT_ID":10954,"ELEMENT_SET_NO":999,"REV_AT_EPOCH":34798,"BSTAR":0.00014765274,"MEAN_MOTION_DOT":5.88e-6,"MEAN_MOTION_DDOT":0}]
